BEIDOU 3                
1 36287U 10001A   22346.24185442 -.00000265  00000+0  00000+0 0  9997
2 36287   1.8210  50.6625 0001879 250.5062   7.2160  1.00267684 47291
RADUGA-1M 2             
1 36358U 10002A   22346.55884494 -.00000166  00000+0  00000+0 0  9994
2 36358   0.2963  99.5122 0002284 218.2844  49.6050  1.00268519 37220
SDO                     
1 36395U 10005A   22346.33721309 -.00000057  00000+0  00000+0 0  9998
2 36395  32.0048 106.3533 0002095 206.2682 147.9306  1.00270780 47194
INTELSAT 16 (IS-16)     
1 36397U 10006A   22346.19567146 -.00000228  00000+0  00000+0 0  9992
2 36397   0.0167  34.2957 0002249 228.6937 172.1361  1.00271063 46784
GOES 15                 
1 36411U 10008A   22346.48313213  .00000067  00000+0  00000+0 0  9997
2 36411   0.1245 284.1487 0002947 290.0719 273.3056  1.00282895 46790
ECHOSTAR 14             
1 36499U 10010A   22346.13939073  .00000018  00000+0  00000+0 0  9992
2 36499   0.0182   4.1837 0002115 274.3096  93.6130  1.00265195 33688
SES-1                   
1 36516U 10016A   22346.48068696 -.00000098  00000+0  00000+0 0  9999
2 36516   0.0120 347.5389 0002657 275.3063 250.3781  1.00272732 46270
ASTRA 3B                
1 36581U 10021A   22346.50552904  .00000154  00000+0  00000+0 0  9992
2 36581   0.0511 330.5036 0003726 279.3865  36.7877  1.00272746 46018
COMSATBW-2              
1 36582U 10021B   22346.34077330  .00000105  00000+0  00000+0 0  9996
2 36582   0.0652  95.9267 0003383 182.7775 298.2175  1.00274665 46095
BADR-5                  
1 36592U 10025A   22346.50605205  .00000162  00000+0  00000+0 0  9990
2 36592   0.0560 122.2169 0003168  95.0304  72.1112  1.00273468 40357
COMS 1                  
1 36744U 10032A   22346.58430865 -.00000328  00000+0  00000+0 0  9998
2 36744   1.5273  91.6347 0001168 177.6667 150.4959  1.00271838 38228
ARABSAT-5A              
1 36745U 10032B   22346.32966198  .00000170  00000+0  00000+0 0  9998
2 36745   0.0606  40.9962 0004068 204.6923 344.5050  1.00269342 45785
ECHOSTAR 15             
1 36792U 10034A   22346.48853184 -.00000265  00000+0  00000+0 0  9995
2 36792   0.0173  41.4110 0002059 201.7433 312.2604  1.00272425 45478
BEIDOU 5                
1 36828U 10036A   22343.16320997 -.00000029  00000+0  00000+0 0  9998
2 36828  54.1986 174.6329 0030491 183.0935 242.8684  1.00248332 45332
NILESAT 201             
1 36830U 10037A   22346.42742904 -.00000041  00000+0  00000+0 0  9994
2 36830   0.0661 164.0322 0004915  86.2849 337.6759  1.00271287 45501
RASCOM-QAF 1R           
1 36831U 10037B   22346.28622148  .00000035  00000+0  00000+0 0  9998
2 36831   0.0274  92.3604 0007229 166.7299 287.8163  1.00271006 45438
AEHF-1 (USA 214)        
1 36868U 10039A   22346.07115425  .00000040  00000+0  00000+0 0  9998
2 36868   4.9809  84.4190 0002302  98.8272 287.1124  1.00270687 40798
QZS-1 (MICHIBIKI-1)     
1 37158U 10045A   22344.78392779 -.00000121  00000+0  00000+0 0  9994
2 37158  42.5245 130.9579 0753895 270.3940  97.7910  1.00263866 44861
XM-5                    
1 37185U 10053A   22345.36054410 -.00000007  00000+0  00000+0 0  9998
2 37185   0.0182 349.1132 0000439 166.1813 299.3751  1.00269016 44573
BSAT-3B                 
1 37207U 10056B   22346.30748978 -.00000334  00000+0  00000+0 0  9993
2 37207   0.0588 309.4393 0004061 346.1610   5.9501  1.00271114 39251
BEIDOU 6                
1 37210U 10057A   22346.56091145 -.00000096  00000+0  00000+0 0  9998
2 37210   0.8676  48.1195 0006749 169.2559 225.7534  1.00270726 44420
SKYTERRA 1              
1 37218U 10061A   22346.48059979 -.00000102  00000+0  00000+0 0  9999
2 37218   2.6735  38.0530 0002942 192.3675 282.4538  1.00272476 44330
ZHONGXING-20A           
1 37234U 10064A   22346.59599223 -.00000174  00000+0  00000+0 0  9992
2 37234   3.0978  86.5727 0002753 161.6344 133.1859  1.00273443 44164
HYLAS 1                 
1 37237U 10065A   22346.51110762  .00000120  00000+0  00000+0 0  9995
2 37237   2.3638  88.2743 0002148 170.2669  58.4058  1.00274260 44116
INTELSAT 17 (IS-17)     
1 37238U 10065B   22346.55334062  .00000015  00000+0  00000+0 0  9994
2 37238   0.0304 269.1874 0002441 356.3486  80.8962  1.00271493 44058
BEIDOU 7                
1 37256U 10068A   22346.21083729 -.00000187  00000+0  00000+0 0  9992
2 37256  49.8966 287.5172 0021157 206.4823 127.6263  1.00250618 43928
EUTELSAT KA-SAT 9A      
1 37258U 10069A   22345.35484198  .00000077  00000+0  00000+0 0  9991
2 37258   0.0743 287.2755 0000734 321.2808 328.2065  1.00270526 31121
HISPASAT 30W-5          
1 37264U 10070A   22346.42307080 -.00000199  00000+0  00000+0 0  9999
2 37264   0.0650 109.8130 0003729 134.3585 319.2312  1.00271219 43806
KOREASAT 6              
1 37265U 10070B   22346.57426451 -.00000345  00000+0  00000+0 0  9993
2 37265   0.0482 120.7721 0003344 162.6017 120.6302  1.00271421 43904
BEIDOU 8                
1 37384U 11013A   22346.65097444 -.00000183  00000+0  00000+0 0  9998
2 37384  60.5493  52.5034 0024224 185.6720 184.2382  1.00260707 42812
INTELSAT NEW DAWN       
1 37392U 11016A   22345.26299208  .00000172  00000+0  00000+0 0  9995
2 37392   0.0124 351.3706 0001466 262.6461 313.4362  1.00274035 40415
YAHSAT 1A               
1 37393U 11016B   22346.52827497  .00000118  00000+0  00000+0 0  9993
2 37393   0.0185 355.9162 0002742 294.7877  33.1797  1.00270924 29546
SBIRS GEO-1 (USA 230)   
1 37481U 11019A   22346.55343285  .00000010  00000+0  00000+0 0  9996
2 37481   2.0955  32.7121 0002282 222.3036  91.4980  1.00266256 42537
TELSTAR 14R             
1 37602U 11021A   22346.27305955 -.00000263  00000+0  00000+0 0  9996
2 37602   0.0099 341.3679 0003022 334.2924 160.5937  1.00270365 42972
GSAT-8                  
1 37605U 11022A   22346.52827497  .00000101  00000+0  00000+0 0  9998
2 37605   0.0129  44.3828 0008861 217.0527  65.0360  1.00271808 40350
ST-2                    
1 37606U 11022B   22346.30313153 -.00000195  00000+0  00000+0 0  9998
2 37606   0.0134  48.1119 0002184 229.1201   0.8895  1.00270282 42411
CHINASAT 10 (ZX 10)     
1 37677U 11026A   22346.58398736 -.00000336  00000+0  00000+0 0  9997
2 37677   0.0492 231.3658 0003705 340.5347 190.1423  1.00271542 42138
TIANLIAN 1-02           
1 37737U 11032A   22346.59216050 -.00000033  00000+0  00000+0 0  9994
2 37737   2.7357  74.7394 0076779   1.8373  24.9373  1.00273793 41864
GSAT-12                 
1 37746U 11034A   22346.51032312  .00000141  00000+0  00000+0 0  9994
2 37746   1.8287  90.4201 0005442   2.6914 219.6786  1.00272529 30637
SES-3                   
1 37748U 11035A   22345.83465130 -.00000086  00000+0  00000+0 0  9998
2 37748   0.0179 357.8529 0003174 263.6990  16.4558  1.00274776 41724
KAZSAT-2                
1 37749U 11035B   22346.56078192 -.00000181  00000+0  00000+0 0  9994
2 37749   0.0157  93.1734 0000878 217.4495  59.0098  1.00271943 40526
BEIDOU 9                
1 37763U 11038A   22346.51515704  .00000047  00000+0  00000+0 0  9993
2 37763  54.4769 177.1055 0101021 227.5286 316.1778  1.00286258 41781
ASTRA 1N                
1 37775U 11041A   22346.50465740  .00000136  00000+0  00000+0 0  9992
2 37775   0.0522  26.2503 0002028 302.2421 313.5578  1.00271176 41534
BSAT-3C (JCSAT-110R)    
1 37776U 11041B   22346.58398822 -.00000334  00000+0  00000+0 0  9998
2 37776   0.0165 355.0670 0000031  15.2952  31.0947  1.00274086 37617
PAKSAT-1R               
1 37779U 11042A   22346.53382903  .00000170  00000+0  00000+0 0  9997
2 37779   0.0183 317.8516 0002591  17.6936 335.9164  1.00274410 41619
CHINASAT 1A (ZX 1A)     
1 37804U 11047A   22346.38730205 -.00000311  00000+0  00000+0 0  9994
2 37804   0.3993  95.7504 0002608 216.0397  18.1630  1.00073110 14492
SES-2                   
1 37809U 11049A   22346.51229723 -.00000179  00000+0  00000+0 0  9996
2 37809   0.0117   9.2979 0002886 255.5012 273.8253  1.00272958 41096
ARABSAT-5C              
1 37810U 11049B   22344.99836149  .00000140  00000+0  00000+0 0  9991
2 37810   0.0628  35.8885 0006093 186.4714 236.7707  1.00274325 41183
EUTELSAT 7 WEST A       
1 37816U 11051A   22346.42742904 -.00000044  00000+0  00000+0 0  9999
2 37816   0.0604 357.9816 0006462 229.1115   0.6012  1.00269890 41105
QUETZSAT 1              
1 37826U 11054A   22346.48548104 -.00000225  00000+0  00000+0 0  9996
2 37826   0.0127 353.5774 0002879 263.9291 281.4351  1.00271856 37026
INTELSAT 18 (IS-18)     
1 37834U 11056A   22346.55535725  .00000070  00000+0  00000+0 0  9997
2 37834   0.0225 345.7358 0002188 276.1800 199.2471  1.00272096 40985
EUTELSAT 16A            
1 37836U 11057A   22346.50396007  .00000121  00000+0  00000+0 0  9990
2 37836   0.0688  20.0516 0005433 244.8199  13.7447  1.00273184 33106
VIASAT-1                
1 37843U 11059A   22346.50049494 -.00000006  00000+0  00000+0 0  9998
2 37843   0.0172 325.9800 0002316 297.9758 242.2903  1.00270487 34461
ASIASAT 7               
1 37933U 11069A   22343.39424363 -.00000319  00000+0  00000+0 0  9992
2 37933   0.0002 311.2977 0001627 286.7885  87.4824  1.00271521 40566
BEIDOU 10               
1 37948U 11073A   22345.82688292 -.00000144  00000+0  00000+0 0  9992
2 37948  50.0179 287.1739 0086355 220.7830 323.7570  1.00294587 40536
LUCH 5A                 
1 37951U 11074B   22346.35743766 -.00000033  00000+0  00000+0 0  9991
2 37951   5.4651  94.3410 0002772 139.5564 142.6272  1.00271951 40329
NIGCOMSAT 1R            
1 38014U 11077A   22346.53382903  .00000162  00000+0  00000+0 0  9999
2 38014   0.0056 224.7113 0002341 102.5878 348.5950  1.00271010 40167
FENGYUN 2F              
1 38049U 12002A   22346.57252679 -.00000342  00000+0  00000+0 0  9997
2 38049   4.2268  78.2986 0002824 265.0934  56.1448  1.00264507 40011
WGS F4 (USA 233)        
1 38070U 12003A   22346.30321869 -.00000198  00000+0  00000+0 0  9990
2 38070   0.0017 358.2336 0000568 249.2063  31.1231  1.00270710 31275
